[{"OBJECT_NAME":"STARLINK-5624","OBJECT_ID":"2023-014AB","EPOCH":"2026-03-09T10:13:02.063712","MEAN_MOTION":14.98326154,"ECCENTRICITY":0.00037262,"INCLINATION":69.9988,"RA_OF_ASC_NODE":85.0849,"ARG_OF_PERICENTER":272.6312,"MEAN_ANOMALY":87.442,"EPHEMERIS_TYPE":0,"CLASSIFICATION_TYPE":"U","NORAD_CAT_ID":55416,"ELEMENT_SET_NO":999,"REV_AT_EPOCH":17152,"BSTAR":0.00015353689,"MEAN_MOTION_DOT":1.739e-5,"MEAN_MOTION_DDOT":0},{"OBJECT_NAME":"DELTA 1 DEB","OBJECT_ID":"1975-052MU","EPOCH":"2026-02-28T13:52:08.081184","MEAN_MOTION":15.00067598,"ECCENTRICITY":0.0002701,"INCLINATION":98.1978,"RA_OF_ASC_NODE":183.1796,"ARG_OF_PERICENTER":358.8202,"MEAN_ANOMALY":66.2186,"EPHEMERIS_TYPE":0,"CLASSIFICATION_TYPE":"U","NORAD_CAT_ID":42659,"ELEMENT_SET_NO":999,"REV_AT_EPOCH":66142,"BSTAR":0.00087726141,"MEAN_MOTION_DOT":0.00010875,"MEAN_MOTION_DDOT":0}]
